CCSDS_OMM_VERS = 2.0
CREATION_DATE  = 
ORIGINATOR     = 

OBJECT_NAME    = UNKNOWN
OBJECT_ID      = 
CENTER_NAME    = EARTH
REF_FRAME      = TEME
TIME_SYSTEM    = UTC
MEAN_ELEMENT_THEORY = SGP/SGP4

EPOCH          = 2025-11-18T20:12:56.860128
MEAN_MOTION    = 12.95485522
ECCENTRICITY   = .00297016
INCLINATION    = 90.2403
RA_OF_ASC_NODE = 5.4358
ARG_OF_PERICENTER = 332.7625
MEAN_ANOMALY   = 27.1935

EPHEMERIS_TYPE = 0
CLASSIFICATION_TYPE = U
NORAD_CAT_ID   = 270091
ELEMENT_SET_NO = 999
REV_AT_EPOCH   = 28277
BSTAR          = -.41905193E-3
MEAN_MOTION_DOT = -.111E-5
MEAN_MOTION_DDOT = 0

CCSDS_OMM_VERS = 2.0
CREATION_DATE  = 
ORIGINATOR     = 

OBJECT_NAME    = UNKNOWN
OBJECT_ID      = 
CENTER_NAME    = EARTH
REF_FRAME      = TEME
TIME_SYSTEM    = UTC
MEAN_ELEMENT_THEORY = SGP/SGP4

EPOCH          = 2025-11-01T10:15:38.613600
MEAN_MOTION    = 12.92536517
ECCENTRICITY   = .00309017
INCLINATION    = 90.2445
RA_OF_ASC_NODE = 1.0064
ARG_OF_PERICENTER = 154.7653
MEAN_ANOMALY   = 205.4982

EPHEMERIS_TYPE = 0
CLASSIFICATION_TYPE = U
NORAD_CAT_ID   = 270093
ELEMENT_SET_NO = 999
REV_AT_EPOCH   = 27984
BSTAR          = .17188957E-3
MEAN_MOTION_DOT = .54E-6
MEAN_MOTION_DDOT = 0

CCSDS_OMM_VERS = 2.0
CREATION_DATE  = 
ORIGINATOR     = 

OBJECT_NAME    = UNKNOWN
OBJECT_ID      = 
CENTER_NAME    = EARTH
REF_FRAME      = TEME
TIME_SYSTEM    = UTC
MEAN_ELEMENT_THEORY = SGP/SGP4

EPOCH          = 2025-11-17T16:33:49.754016
MEAN_MOTION    = 12.23903677
ECCENTRICITY   = .01201199
INCLINATION    = 102.5774
RA_OF_ASC_NODE = 297.4896
ARG_OF_PERICENTER = 304.8593
MEAN_ANOMALY   = 54.1212

EPHEMERIS_TYPE = 0
CLASSIFICATION_TYPE = U
NORAD_CAT_ID   = 270094
ELEMENT_SET_NO = 999
REV_AT_EPOCH   = 26703
BSTAR          = .79907257E-3
MEAN_MOTION_DOT = .43E-6
MEAN_MOTION_DDOT = 0

CCSDS_OMM_VERS = 2.0
CREATION_DATE  = 
ORIGINATOR     = 

OBJECT_NAME    = UNKNOWN
OBJECT_ID      = 
CENTER_NAME    = EARTH
REF_FRAME      = TEME
TIME_SYSTEM    = UTC
MEAN_ELEMENT_THEORY = SGP/SGP4

EPOCH          = 2025-11-17T09:45:18.951840
MEAN_MOTION    = 12.97252859
ECCENTRICITY   = .00237348
INCLINATION    = 90.2483
RA_OF_ASC_NODE = 7.1018
ARG_OF_PERICENTER = 291.3951
MEAN_ANOMALY   = 68.4637

EPHEMERIS_TYPE = 0
CLASSIFICATION_TYPE = U
NORAD_CAT_ID   = 270095
ELEMENT_SET_NO = 999
REV_AT_EPOCH   = 28278
BSTAR          = .86982611E-3
MEAN_MOTION_DOT = .259E-5
MEAN_MOTION_DDOT = 0

CCSDS_OMM_VERS = 2.0
CREATION_DATE  = 
ORIGINATOR     = 

OBJECT_NAME    = UNKNOWN
OBJECT_ID      = 
CENTER_NAME    = EARTH
REF_FRAME      = TEME
TIME_SYSTEM    = UTC
MEAN_ELEMENT_THEORY = SGP/SGP4

EPOCH          = 2025-11-18T07:35:36.621312
MEAN_MOTION    = 14.32604644
ECCENTRICITY   = .00131673
INCLINATION    = 98.6846
RA_OF_ASC_NODE = 336.2467
ARG_OF_PERICENTER = 356.7236
MEAN_ANOMALY   = 3.3859

EPHEMERIS_TYPE = 0
CLASSIFICATION_TYPE = U
NORAD_CAT_ID   = 270096
ELEMENT_SET_NO = 999
REV_AT_EPOCH   = 31193
BSTAR          = .21037883E-3
MEAN_MOTION_DOT = .527E-5
MEAN_MOTION_DDOT = 0

CCSDS_OMM_VERS = 2.0
CREATION_DATE  = 
ORIGINATOR     = 

OBJECT_NAME    = UNKNOWN
OBJECT_ID      = 
CENTER_NAME    = EARTH
REF_FRAME      = TEME
TIME_SYSTEM    = UTC
MEAN_ELEMENT_THEORY = SGP/SGP4

EPOCH          = 2025-11-08T21:44:47.267232
MEAN_MOTION    = 12.99487929
ECCENTRICITY   = .00145717
INCLINATION    = 90.2747
RA_OF_ASC_NODE = 15.5634
ARG_OF_PERICENTER = 176.2502
MEAN_ANOMALY   = 183.8731

EPHEMERIS_TYPE = 0
CLASSIFICATION_TYPE = U
NORAD_CAT_ID   = 270097
ELEMENT_SET_NO = 999
REV_AT_EPOCH   = 28154
BSTAR          = -.66985181E-3
MEAN_MOTION_DOT = -.193E-5
MEAN_MOTION_DDOT = 0

CCSDS_OMM_VERS = 2.0
CREATION_DATE  = 
ORIGINATOR     = 

OBJECT_NAME    = UNKNOWN
OBJECT_ID      = 
CENTER_NAME    = EARTH
REF_FRAME      = TEME
TIME_SYSTEM    = UTC
MEAN_ELEMENT_THEORY = SGP/SGP4

EPOCH          = 2025-11-11T14:02:25.544832
MEAN_MOTION    = 14.39893643
ECCENTRICITY   = .01679272
INCLINATION    = 98.2817
RA_OF_ASC_NODE = 72.2505
ARG_OF_PERICENTER = 63.6124
MEAN_ANOMALY   = 298.2194

EPHEMERIS_TYPE = 0
CLASSIFICATION_TYPE = U
NORAD_CAT_ID   = 270098
ELEMENT_SET_NO = 999
REV_AT_EPOCH   = 30957
BSTAR          = .23437113E-2
MEAN_MOTION_DOT = .866E-4
MEAN_MOTION_DDOT = 0

CCSDS_OMM_VERS = 2.0
CREATION_DATE  = 
ORIGINATOR     = 

OBJECT_NAME    = UNKNOWN
OBJECT_ID      = 
CENTER_NAME    = EARTH
REF_FRAME      = TEME
TIME_SYSTEM    = UTC
MEAN_ELEMENT_THEORY = SGP/SGP4

EPOCH          = 2025-11-17T12:36:08.496576
MEAN_MOTION    = 12.54607839
ECCENTRICITY   = .01723246
INCLINATION    = 102.3530
RA_OF_ASC_NODE = 63.9479
ARG_OF_PERICENTER = 121.2664
MEAN_ANOMALY   = 240.5412

EPHEMERIS_TYPE = 0
CLASSIFICATION_TYPE = U
NORAD_CAT_ID   = 270099
ELEMENT_SET_NO = 999
REV_AT_EPOCH   = 27236
BSTAR          = .1185433E-1
MEAN_MOTION_DOT = .1977E-4
MEAN_MOTION_DDOT = 0

CCSDS_OMM_VERS = 2.0
CREATION_DATE  = 
ORIGINATOR     = 

OBJECT_NAME    = UNKNOWN
OBJECT_ID      = 
CENTER_NAME    = EARTH
REF_FRAME      = TEME
TIME_SYSTEM    = UTC
MEAN_ELEMENT_THEORY = SGP/SGP4

EPOCH          = 2025-11-15T07:03:40.780800
MEAN_MOTION    = 14.80880062
ECCENTRICITY   = .00387801
INCLINATION    = 97.3145
RA_OF_ASC_NODE = 328.4384
ARG_OF_PERICENTER = 260.7739
MEAN_ANOMALY   = 98.9087

EPHEMERIS_TYPE = 0
CLASSIFICATION_TYPE = U
NORAD_CAT_ID   = 270100
ELEMENT_SET_NO = 999
REV_AT_EPOCH   = 31345
BSTAR          = .62326888E-2
MEAN_MOTION_DOT = .49036E-3
MEAN_MOTION_DDOT = 0

CCSDS_OMM_VERS = 2.0
CREATION_DATE  = 
ORIGINATOR     = 

OBJECT_NAME    = UNKNOWN
OBJECT_ID      = 
CENTER_NAME    = EARTH
REF_FRAME      = TEME
TIME_SYSTEM    = UTC
MEAN_ELEMENT_THEORY = SGP/SGP4

EPOCH          = 2025-11-13T05:53:20.132160
MEAN_MOTION    = 12.38941583
ECCENTRICITY   = .00948722
INCLINATION    = 102.3617
RA_OF_ASC_NODE = 308.1352
ARG_OF_PERICENTER = 339.8516
MEAN_ANOMALY   = 19.8813

EPHEMERIS_TYPE = 0
CLASSIFICATION_TYPE = U
NORAD_CAT_ID   = 270101
ELEMENT_SET_NO = 999
REV_AT_EPOCH   = 26980
BSTAR          = .24793276E-3
MEAN_MOTION_DOT = -.14E-6
MEAN_MOTION_DDOT = 0

CCSDS_OMM_VERS = 2.0
CREATION_DATE  = 
ORIGINATOR     = 

OBJECT_NAME    = UNKNOWN
OBJECT_ID      = 
CENTER_NAME    = EARTH
REF_FRAME      = TEME
TIME_SYSTEM    = UTC
MEAN_ELEMENT_THEORY = SGP/SGP4

EPOCH          = 2025-11-07T23:18:05.350464
MEAN_MOTION    = 13.02971876
ECCENTRICITY   = .00310293
INCLINATION    = 90.2906
RA_OF_ASC_NODE = 28.7156
ARG_OF_PERICENTER = 24.3737
MEAN_ANOMALY   = 335.8846

EPHEMERIS_TYPE = 0
CLASSIFICATION_TYPE = U
NORAD_CAT_ID   = 270103
ELEMENT_SET_NO = 999
REV_AT_EPOCH   = 28286
BSTAR          = .50966187E-2
MEAN_MOTION_DOT = .1611E-4
MEAN_MOTION_DDOT = 0

CCSDS_OMM_VERS = 2.0
CREATION_DATE  = 
ORIGINATOR     = 

OBJECT_NAME    = UNKNOWN
OBJECT_ID      = 
CENTER_NAME    = EARTH
REF_FRAME      = TEME
TIME_SYSTEM    = UTC
MEAN_ELEMENT_THEORY = SGP/SGP4

EPOCH          = 2025-11-15T20:50:42.635328
MEAN_MOTION    = 12.96128912
ECCENTRICITY   = .00252519
INCLINATION    = 90.2571
RA_OF_ASC_NODE = 11.0349
ARG_OF_PERICENTER = 296.3225
MEAN_ANOMALY   = 63.5302

EPHEMERIS_TYPE = 0
CLASSIFICATION_TYPE = U
NORAD_CAT_ID   = 270104
ELEMENT_SET_NO = 999
REV_AT_EPOCH   = 28250
BSTAR          = -.4061337E-3
MEAN_MOTION_DOT = -.109E-5
MEAN_MOTION_DDOT = 0

CCSDS_OMM_VERS = 2.0
CREATION_DATE  = 
ORIGINATOR     = 

OBJECT_NAME    = UNKNOWN
OBJECT_ID      = 
CENTER_NAME    = EARTH
REF_FRAME      = TEME
TIME_SYSTEM    = UTC
MEAN_ELEMENT_THEORY = SGP/SGP4

EPOCH          = 2025-11-16T02:57:16.503552
MEAN_MOTION    = 12.40397343
ECCENTRICITY   = .01766119
INCLINATION    = 56.0575
RA_OF_ASC_NODE = 274.1671
ARG_OF_PERICENTER = 64.2066
MEAN_ANOMALY   = 297.6942

EPHEMERIS_TYPE = 0
CLASSIFICATION_TYPE = U
NORAD_CAT_ID   = 270106
ELEMENT_SET_NO = 999
REV_AT_EPOCH   = 27058
BSTAR          = .75449293E-3
MEAN_MOTION_DOT = .13E-6
MEAN_MOTION_DDOT = 0

CCSDS_OMM_VERS = 2.0
CREATION_DATE  = 
ORIGINATOR     = 

OBJECT_NAME    = UNKNOWN
OBJECT_ID      = 
CENTER_NAME    = EARTH
REF_FRAME      = TEME
TIME_SYSTEM    = UTC
MEAN_ELEMENT_THEORY = SGP/SGP4

EPOCH          = 2025-11-11T05:32:12.246720
MEAN_MOTION    = 13.05782679
ECCENTRICITY   = .00171835
INCLINATION    = 90.0196
RA_OF_ASC_NODE = 310.9278
ARG_OF_PERICENTER = 301.3805
MEAN_ANOMALY   = 58.5639

EPHEMERIS_TYPE = 0
CLASSIFICATION_TYPE = U
NORAD_CAT_ID   = 270108
ELEMENT_SET_NO = 999
REV_AT_EPOCH   = 28387
BSTAR          = .14000516E-2
MEAN_MOTION_DOT = .466E-5
MEAN_MOTION_DDOT = 0

CCSDS_OMM_VERS = 2.0
CREATION_DATE  = 
ORIGINATOR     = 

OBJECT_NAME    = UNKNOWN
OBJECT_ID      = 
CENTER_NAME    = EARTH
REF_FRAME      = TEME
TIME_SYSTEM    = UTC
MEAN_ELEMENT_THEORY = SGP/SGP4

EPOCH          = 2025-11-09T10:55:04.144512
MEAN_MOTION    = 12.98342597
ECCENTRICITY   = .00306341
INCLINATION    = 90.2472
RA_OF_ASC_NODE = 8.0442
ARG_OF_PERICENTER = 233.1217
MEAN_ANOMALY   = 126.7095

EPHEMERIS_TYPE = 0
CLASSIFICATION_TYPE = U
NORAD_CAT_ID   = 270110
ELEMENT_SET_NO = 999
REV_AT_EPOCH   = 28197
BSTAR          = .30035434E-2
MEAN_MOTION_DOT = .891E-5
MEAN_MOTION_DDOT = 0

CCSDS_OMM_VERS = 2.0
CREATION_DATE  = 
ORIGINATOR     = 

OBJECT_NAME    = UNKNOWN
OBJECT_ID      = 
CENTER_NAME    = EARTH
REF_FRAME      = TEME
TIME_SYSTEM    = UTC
MEAN_ELEMENT_THEORY = SGP/SGP4

EPOCH          = 2025-11-17T07:10:09.256800
MEAN_MOTION    = 14.38831508
ECCENTRICITY   = .00204281
INCLINATION    = 98.4927
RA_OF_ASC_NODE = 336.8970
ARG_OF_PERICENTER = 190.7097
MEAN_ANOMALY   = 169.3658

EPHEMERIS_TYPE = 0
CLASSIFICATION_TYPE = U
NORAD_CAT_ID   = 270111
ELEMENT_SET_NO = 999
REV_AT_EPOCH   = 31358
BSTAR          = .27115306E-3
MEAN_MOTION_DOT = .792E-5
MEAN_MOTION_DDOT = 0

